STARLINK-4268           
1 53183U 22083BD  25335.82565838  .00000159  00000+0  28128-4 0  9997
2 53183  53.2170 208.3620 0002265  96.5259 263.5991 15.08834734187062
STARLINK-4257           
1 53184U 22083BE  25335.83527791  .00002613  00000+0  18227-3 0  9990
2 53184  53.2155 202.9922 0001242  92.7819 267.3315 15.08829082187157
STARLINK-4391           
1 53189U 22084A   25335.73060659  .00000317  00000+0  26181-4 0  9998
2 53189  97.6025  34.6118 0000456  63.6282 296.4992 15.05647183185311
STARLINK-4332           
1 53190U 22084B   25335.74446015 -.00000002  00000+0  40953-5 0  9991
2 53190  97.6023  34.6629 0000978  91.2187 268.9152 15.05643672185319
STARLINK-4369           
1 53191U 22084C   25335.72984595  .00001743  00000+0  14018-3 0  9993
2 53191  97.6034  34.2922 0001321 188.5799 171.5403 15.01276963184617
STARLINK-4351           
1 53193U 22084E   25335.73358558 -.00001668  00000+0 -12538-3 0  9993
2 53193  97.6046  34.2962 0002059 139.6099 220.5278 15.01240831185638
STARLINK-4382           
1 53194U 22084F   25335.72507925  .00002619  00000+0  18561-3 0  9994
2 53194  97.6043  34.6107 0000811  96.9268 263.2051 15.05658338184639
STARLINK-4404           
1 53195U 22084G   25335.80049462  .00000120  00000+0  15293-5 0  9997
2 53195  97.6418  46.4054 0000880   1.0589 359.0679 15.79039367186028
STARLINK-4407           
1 53196U 22084H   25335.83312596  .00000293  00000+0  25052-5 0  9997
2 53196  97.6391  46.9902 0001208 290.6971  69.4165 15.79039618186045
STARLINK-4403           
1 53197U 22084J   25335.72245647  .00000878  00000+0  72926-4 0  9998
2 53197  97.6054  34.2938 0002022 172.4728 187.6527 15.01261859184618
STARLINK-4385           
1 53198U 22084K   25335.72616291  .00000979  00000+0  80785-4 0  9990
2 53198  97.6058  34.2923 0001510  69.5982 290.5404 15.01259886185274
STARLINK-4395           
1 53199U 22084L   25335.63369526  .00000733  00000+0  55025-4 0  9994
2 53199  97.6054  34.5517 0001218  99.1750 260.9615 15.05647369184624
STARLINK-4417           
1 53200U 22084M   25335.71953510  .00000821  00000+0  61095-4 0  9990
2 53200  97.6049  34.6008 0001012  95.9534 264.1808 15.05645848185297
STARLINK-4405           
1 53201U 22084N   25335.73615293  .00005244  00000+0  36728-3 0  9994
2 53201  97.6027  34.7159 0000400 149.4601 210.6649 15.05658199184642
STARLINK-4411           
1 53202U 22084P   25335.62261308 -.00001466  00000+0 -97441-4 0  9991
2 53202  97.6034  34.5671 0001456 101.2078 258.9313 15.05648621184624
