[{"OBJECT_NAME":"STARLINK-4268","OBJECT_ID":"2022-083BD","EPOCH":"2025-12-01T19:48:56.884032","MEAN_MOTION":15.08834734,"ECCENTRICITY":0.0002265,"INCLINATION":53.217,"RA_OF_ASC_NODE":208.362,"ARG_OF_PERICENTER":96.5259,"MEAN_ANOMALY":263.5991,"EPHEMERIS_TYPE":0,"CLASSIFICATION_TYPE":"U","NORAD_CAT_ID":53183,"ELEMENT_SET_NO":999,"REV_AT_EPOCH":18706,"BSTAR":2.8128e-5,"MEAN_MOTION_DOT":1.59e-6,"MEAN_MOTION_DDOT":0},{"OBJECT_NAME":"STARLINK-4257","OBJECT_ID":"2022-083BE","EPOCH":"2025-12-01T20:02:48.011424","MEAN_MOTION":15.08829082,"ECCENTRICITY":0.0001242,"INCLINATION":53.2155,"RA_OF_ASC_NODE":202.9922,"ARG_OF_PERICENTER":92.7819,"MEAN_ANOMALY":267.3315,"EPHEMERIS_TYPE":0,"CLASSIFICATION_TYPE":"U","NORAD_CAT_ID":53184,"ELEMENT_SET_NO":999,"REV_AT_EPOCH":18715,"BSTAR":0.00018227,"MEAN_MOTION_DOT":2.613e-5,"MEAN_MOTION_DDOT":0},{"OBJECT_NAME":"STARLINK-4391","OBJECT_ID":"2022-084A","EPOCH":"2025-12-01T17:32:04.409376","MEAN_MOTION":15.05647183,"ECCENTRICITY":4.56e-5,"INCLINATION":97.6025,"RA_OF_ASC_NODE":34.6118,"ARG_OF_PERICENTER":63.6282,"MEAN_ANOMALY":296.4992,"EPHEMERIS_TYPE":0,"CLASSIFICATION_TYPE":"U","NORAD_CAT_ID":53189,"ELEMENT_SET_NO":999,"REV_AT_EPOCH":18531,"BSTAR":2.6181e-5,"MEAN_MOTION_DOT":3.17e-6,"MEAN_MOTION_DDOT":0},{"OBJECT_NAME":"STARLINK-4332","OBJECT_ID":"2022-084B","EPOCH":"2025-12-01T17:52:01.356960","MEAN_MOTION":15.05643672,"ECCENTRICITY":9.78e-5,"INCLINATION":97.6023,"RA_OF_ASC_NODE":34.6629,"ARG_OF_PERICENTER":91.2187,"MEAN_ANOMALY":268.9152,"EPHEMERIS_TYPE":0,"CLASSIFICATION_TYPE":"U","NORAD_CAT_ID":53190,"ELEMENT_SET_NO":999,"REV_AT_EPOCH":18531,"BSTAR":4.0953e-6,"MEAN_MOTION_DOT":-2.0e-8,"MEAN_MOTION_DDOT":0},{"OBJECT_NAME":"STARLINK-4369","OBJECT_ID":"2022-084C","EPOCH":"2025-12-01T17:30:58.690080","MEAN_MOTION":15.01276963,"ECCENTRICITY":0.0001321,"INCLINATION":97.6034,"RA_OF_ASC_NODE":34.2922,"ARG_OF_PERICENTER":188.5799,"MEAN_ANOMALY":171.5403,"EPHEMERIS_TYPE":0,"CLASSIFICATION_TYPE":"U","NORAD_CAT_ID":53191,"ELEMENT_SET_NO":999,"REV_AT_EPOCH":18461,"BSTAR":0.00014018,"MEAN_MOTION_DOT":1.743e-5,"MEAN_MOTION_DDOT":0},{"OBJECT_NAME":"STARLINK-4351","OBJECT_ID":"2022-084E","EPOCH":"2025-12-01T17:36:21.794112","MEAN_MOTION":15.01240831,"ECCENTRICITY":0.0002059,"INCLINATION":97.6046,"RA_OF_ASC_NODE":34.2962,"ARG_OF_PERICENTER":139.6099,"MEAN_ANOMALY":220.5278,"EPHEMERIS_TYPE":0,"CLASSIFICATION_TYPE":"U","NORAD_CAT_ID":53193,"ELEMENT_SET_NO":999,"REV_AT_EPOCH":18563,"BSTAR":-0.00012538,"MEAN_MOTION_DOT":-1.668e-5,"MEAN_MOTION_DDOT":0},{"OBJECT_NAME":"STARLINK-4382","OBJECT_ID":"2022-084F","EPOCH":"2025-12-01T17:24:06.847200","MEAN_MOTION":15.05658338,"ECCENTRICITY":8.11e-5,"INCLINATION":97.6043,"RA_OF_ASC_NODE":34.6107,"ARG_OF_PERICENTER":96.9268,"MEAN_ANOMALY":263.2051,"EPHEMERIS_TYPE":0,"CLASSIFICATION_TYPE":"U","NORAD_CAT_ID":53194,"ELEMENT_SET_NO":999,"REV_AT_EPOCH":18463,"BSTAR":0.00018561,"MEAN_MOTION_DOT":2.619e-5,"MEAN_MOTION_DDOT":0},{"OBJECT_NAME":"STARLINK-4404","OBJECT_ID":"2022-084G","EPOCH":"2025-12-01T19:12:42.735168","MEAN_MOTION":15.79039367,"ECCENTRICITY":8.8e-5,"INCLINATION":97.6418,"RA_OF_ASC_NODE":46.4054,"ARG_OF_PERICENTER":1.0589,"MEAN_ANOMALY":359.0679,"EPHEMERIS_TYPE":0,"CLASSIFICATION_TYPE":"U","NORAD_CAT_ID":53195,"ELEMENT_SET_NO":999,"REV_AT_EPOCH":18602,"BSTAR":1.5293e-6,"MEAN_MOTION_DOT":1.2e-6,"MEAN_MOTION_DDOT":0},{"OBJECT_NAME":"STARLINK-4407","OBJECT_ID":"2022-084H","EPOCH":"2025-12-01T19:59:42.082944","MEAN_MOTION":15.79039618,"ECCENTRICITY":0.0001208,"INCLINATION":97.6391,"RA_OF_ASC_NODE":46.9902,"ARG_OF_PERICENTER":290.6971,"MEAN_ANOMALY":69.4165,"EPHEMERIS_TYPE":0,"CLASSIFICATION_TYPE":"U","NORAD_CAT_ID":53196,"ELEMENT_SET_NO":999,"REV_AT_EPOCH":18604,"BSTAR":2.5052e-6,"MEAN_MOTION_DOT":2.93e-6,"MEAN_MOTION_DDOT":0},{"OBJECT_NAME":"STARLINK-4403","OBJECT_ID":"2022-084J","EPOCH":"2025-12-01T17:20:20.239008","MEAN_MOTION":15.01261859,"ECCENTRICITY":0.0002022,"INCLINATION":97.6054,"RA_OF_ASC_NODE":34.2938,"ARG_OF_PERICENTER":172.4728,"MEAN_ANOMALY":187.6527,"EPHEMERIS_TYPE":0,"CLASSIFICATION_TYPE":"U","NORAD_CAT_ID":53197,"ELEMENT_SET_NO":999,"REV_AT_EPOCH":18461,"BSTAR":7.2926e-5,"MEAN_MOTION_DOT":8.78e-6,"MEAN_MOTION_DDOT":0},{"OBJECT_NAME":"STARLINK-4385","OBJECT_ID":"2022-084K","EPOCH":"2025-12-01T17:25:40.475424","MEAN_MOTION":15.01259886,"ECCENTRICITY":0.000151,"INCLINATION":97.6058,"RA_OF_ASC_NODE":34.2923,"ARG_OF_PERICENTER":69.5982,"MEAN_ANOMALY":290.5404,"EPHEMERIS_TYPE":0,"CLASSIFICATION_TYPE":"U","NORAD_CAT_ID":53198,"ELEMENT_SET_NO":999,"REV_AT_EPOCH":18527,"BSTAR":8.0785e-5,"MEAN_MOTION_DOT":9.79e-6,"MEAN_MOTION_DDOT":0},{"OBJECT_NAME":"STARLINK-4395","OBJECT_ID":"2022-084L","EPOCH":"2025-12-01T15:12:31.269600","MEAN_MOTION":15.05647369,"ECCENTRICITY":0.0001219,"INCLINATION":97.6054,"RA_OF_ASC_NODE":34.5517,"ARG_OF_PERICENTER":99.175,"MEAN_ANOMALY":260.9615,"EPHEMERIS_TYPE":0,"CLASSIFICATION_TYPE":"U","NORAD_CAT_ID":53199,"ELEMENT_SET_NO":999,"REV_AT_EPOCH":18462,"BSTAR":5.5025e-5,"MEAN_MOTION_DOT":7.33e-6,"MEAN_MOTION_DDOT":0},{"OBJECT_NAME":"STARLINK-4417","OBJECT_ID":"2022-084M","EPOCH":"2025-12-01T17:16:07.832640","MEAN_MOTION":15.05645848,"ECCENTRICITY":0.0001012,"INCLINATION":97.6049,"RA_OF_ASC_NODE":34.6008,"ARG_OF_PERICENTER":95.9534,"MEAN_ANOMALY":264.1808,"EPHEMERIS_TYPE":0,"CLASSIFICATION_TYPE":"U","NORAD_CAT_ID":53200,"ELEMENT_SET_NO":999,"REV_AT_EPOCH":18529,"BSTAR":6.1095e-5,"MEAN_MOTION_DOT":8.21e-6,"MEAN_MOTION_DDOT":0},{"OBJECT_NAME":"STARLINK-4405","OBJECT_ID":"2022-084N","EPOCH":"2025-12-01T17:40:03.613152","MEAN_MOTION":15.05658199,"ECCENTRICITY":4.0e-5,"INCLINATION":97.6027,"RA_OF_ASC_NODE":34.7159,"ARG_OF_PERICENTER":149.4601,"MEAN_ANOMALY":210.6649,"EPHEMERIS_TYPE":0,"CLASSIFICATION_TYPE":"U","NORAD_CAT_ID":53201,"ELEMENT_SET_NO":999,"REV_AT_EPOCH":18464,"BSTAR":0.00036728,"MEAN_MOTION_DOT":5.244e-5,"MEAN_MOTION_DDOT":0},{"OBJECT_NAME":"STARLINK-4411","OBJECT_ID":"2022-084P","EPOCH":"2025-12-01T14:56:33.770112","MEAN_MOTION":15.05648621,"ECCENTRICITY":0.0001457,"INCLINATION":97.6034,"RA_OF_ASC_NODE":34.5671,"ARG_OF_PERICENTER":101.2078,"MEAN_ANOMALY":258.9313,"EPHEMERIS_TYPE":0,"CLASSIFICATION_TYPE":"U","NORAD_CAT_ID":53202,"ELEMENT_SET_NO":999,"REV_AT_EPOCH":18462,"BSTAR":-9.7441e-5,"MEAN_MOTION_DOT":-1.466e-5,"MEAN_MOTION_DDOT":0}]
